[{"OBJECT_NAME":"STARLINK-5190","OBJECT_ID":"2022-136AT","EPOCH":"2026-03-09T12:41:00.063744","MEAN_MOTION":15.67479539,"ECCENTRICITY":0.00024286,"INCLINATION":53.1784,"RA_OF_ASC_NODE":175.0319,"ARG_OF_PERICENTER":333.791,"MEAN_ANOMALY":26.2984,"EPHEMERIS_TYPE":0,"CLASSIFICATION_TYPE":"U","NORAD_CAT_ID":54092,"ELEMENT_SET_NO":999,"REV_AT_EPOCH":18920,"BSTAR":0.0005696033,"MEAN_MOTION_DOT":0.00062878,"MEAN_MOTION_DDOT":0},{"OBJECT_NAME":"STARLINK-11186 [DTC]","OBJECT_ID":"2024-113M","EPOCH":"2026-03-09T14:22:39.647136","MEAN_MOTION":15.6968196,"ECCENTRICITY":9.2e-5,"INCLINATION":53.1587,"RA_OF_ASC_NODE":191.8979,"ARG_OF_PERICENTER":96.2443,"MEAN_ANOMALY":263.868,"EPHEMERIS_TYPE":0,"CLASSIFICATION_TYPE":"U","NORAD_CAT_ID":60070,"ELEMENT_SET_NO":999,"REV_AT_EPOCH":9995,"BSTAR":-2.4701e-5,"MEAN_MOTION_DOT":-3.576e-5,"MEAN_MOTION_DDOT":0}]
