STARLINK-5190           
1 54092U 22136AT  26068.52847296  .00062878  00000+0  56960-3 0  9998
2 54092  53.1784 175.0319 0002428 333.7910  26.2984 15.67479539189205
STARLINK-11186 [DTC]    
1 60070U 24113M   26068.59906999 -.00003576  00000+0 -24701-4 0  9992
2 60070  53.1587 191.8979 0000920  96.2443 263.8680 15.69681960 99953
